NORAD_CAT_ID,OBJECT_NAME,OBJECT_TYPE,EPOCH,MEAN_MOTION,ECCENTRICITY,INCLINATION,RA_OF_ASC_NODE,ARG_OF_PERICENTER,MEAN_ANOMALY,BSTAR,MEAN_MOTION_DOT,MEAN_MOTION_DDOT,TLE_LINE0,TLE_LINE1,TLE_LINE2,SEMIMAJOR_AXIS,PERIOD,APOGEE,PERIGEE,DECAYED
52583.0,STARLINK-3895,PAYLOAD,2023-06-04 21:36:40,15.08848906,0.0001053,53.2184,327.7483,92.5551,267.5562,-5.8042e-05,-1.212e-05,0.0,0 STARLINK-3895,1 52583U 22051AZ  23155.90047398 -.00001212  00000-0 -58042-4 0  9990,2 52583  53.2184 327.7483 0001053  92.5551 267.5562 15.08848906 59295,6917.853,95.437,540.447,538.99,0.0
52583.0,STARLINK-3895,PAYLOAD,2023-06-05 03:58:13,15.08833109,6.64e-05,53.2184,326.5625,154.2547,205.8479,2.1269e-06,-2.54e-06,0.0,0 STARLINK-3895,1 52583U 22051AZ  23156.16543879 -.00000254  00000-0  21269-5 0  9990,2 52583  53.2184 326.5625 0000664 154.2547 205.8479 15.08833109 59402,6917.901,95.438,540.226,539.307,0.0
52583.0,STARLINK-3895,PAYLOAD,2023-06-05 11:55:09,15.08833128,7.87e-05,53.2185,325.0755,121.9982,238.1086,-6.2225e-07,-2.98e-06,0.0,0 STARLINK-3895,1 52583U 22051AZ  23156.49664229 -.00000298  00000-0 -62225-6 0  9996,2 52583  53.2185 325.0755 0000787 121.9982 238.1086 15.08833128 59382,6917.901,95.438,540.311,539.222,0.0
52583.0,STARLINK-3895,PAYLOAD,2023-06-05 16:41:18,15.08842467,0.0001055,53.2175,324.1808,82.0483,278.0629,6.498e-05,7.47e-06,0.0,0 STARLINK-3895,1 52583U 22051AZ  23156.69535577  .00000747  00000-0  64980-4 0  9996,2 52583  53.2175 324.1808 0001055  82.0483 278.0629 15.08842467 59485,6917.873,95.437,540.468,539.008,0.0
52583.0,STARLINK-3895,PAYLOAD,2023-06-05 18:16:41,15.08847276,0.0001029,53.2177,323.8848,87.2524,272.8586,0.00011223,1.499e-05,0.0,0 STARLINK-3895,1 52583U 22051AZ  23156.76159113  .00001499  00000-0  11223-3 0  9998,2 52583  53.2177 323.8848 0001029  87.2524 272.8586 15.08847276 59422,6917.858,95.437,540.435,539.011,0.0
52583.0,STARLINK-3895,PAYLOAD,2023-06-06 10:10:33,15.0883902,0.0001024,53.2179,320.9123,89.6082,270.5028,0.00010594,1.399e-05,0.0,0 STARLINK-3895,1 52583U 22051AZ  23157.42399731  .00001399  00000-0  10594-3 0  9993,2 52583  53.2179 320.9123 0001024  89.6082 270.5028 15.08839020 59523,6917.883,95.438,540.457,539.04,0.0
52583.0,STARLINK-3895,PAYLOAD,2023-06-06 14:56:43,15.08839689,0.0001461,53.2179,320.0182,88.3674,271.7486,7.557e-06,-1.68e-06,0.0,0 STARLINK-3895,1 52583U 22051AZ  23157.62272075 -.00000168  00000-0  75570-5 0  9997,2 52583  53.2179 320.0182 0001461  88.3674 271.7486 15.08839689 59620,6917.881,95.438,540.757,538.736,0.0
52583.0,STARLINK-3895,PAYLOAD,2023-06-07 03:39:47,15.08841258,9.8e-05,53.2177,317.6406,94.3694,265.7411,-8.7552e-07,-3.02e-06,0.0,0 STARLINK-3895,1 52583U 22051AZ  23158.15263888 -.00000302  00000-0 -87552-6 0  9993,2 52583  53.2177 317.6406 0000980  94.3694 265.7411 15.08841258 59630,6917.877,95.437,540.419,539.064,0.0
52583.0,STARLINK-3895,PAYLOAD,2023-06-07 17:58:16,15.08842673,9.34e-05,53.2165,314.9617,86.084,274.0259,2.6445e-05,1.33e-06,0.0,0 STARLINK-3895,1 52583U 22051AZ  23158.74879833  .00000133  00000-0  26445-4 0  9993,2 52583  53.2165 314.9617 0000934  86.0840 274.0259 15.08842673 59793,6917.872,95.437,540.383,539.091,0.0
52583.0,STARLINK-3895,PAYLOAD,2023-06-08 03:30:35,15.08833817,9.73e-05,53.2171,313.1774,82.9724,277.1379,-4.6605e-05,-1.029e-05,0.0,0 STARLINK-3895,1 52583U 22051AZ  23159.14624598 -.00001029  00000-0 -46605-4 0  9991,2 52583  53.2171 313.1774 0000973  82.9724 277.1379 15.08833817 59858,6917.899,95.438,540.437,539.091,0.0
52583.0,STARLINK-3895,PAYLOAD,2023-06-08 19:24:26,15.08845868,9.88e-05,53.2169,310.2043,88.9485,271.162,0.00012844,1.757e-05,0.0,0 STARLINK-3895,1 52583U 22051AZ  23159.80863630  .00001757  00000-0  12844-3 0  9999,2 52583  53.2169 310.2043 0000988  88.9485 271.1620 15.08845868 59951,6917.862,95.437,540.411,539.044,0.0
52583.0,STARLINK-3895,PAYLOAD,2023-06-09 09:42:55,15.08830973,0.0001012,53.2158,307.5261,108.7529,251.3573,3.3722e-05,2.49e-06,0.0,0 STARLINK-3895,1 52583U 22051AZ  23160.40480648  .00000249  00000-0  33722-4 0  9995,2 52583  53.2158 307.5261 0001012 108.7529 251.3573 15.08830973 60049,6917.908,95.438,540.473,539.073,0.0
52583.0,STARLINK-3895,PAYLOAD,2023-06-09 16:04:27,15.08835353,0.0001156,53.2154,306.3388,91.8841,268.2283,6.9974e-05,8.26e-06,0.0,0 STARLINK-3895,1 52583U 22051AZ  23160.66976658  .00000826  00000-0  69974-4 0  9993,2 52583  53.2154 306.3388 0001156  91.8841 268.2283 15.08835353 60019,6917.895,95.438,540.559,538.96,0.0
52583.0,STARLINK-3895,PAYLOAD,2023-06-10 03:12:09,15.08842718,0.0001376,53.2171,304.259,74.7088,285.4056,7.5811e-05,9.19e-06,0.0,0 STARLINK-3895,1 52583U 22051AZ  23161.13344496  .00000919  00000-0  75811-4 0  9995,2 52583  53.2171 304.2590 0001376  74.7088 285.4056 15.08842718 60154,6917.872,95.437,540.689,538.785,0.0
52583.0,STARLINK-3895,PAYLOAD,2023-06-10 11:09:05,15.08843256,0.0001118,53.2165,302.7719,86.0544,274.0576,0.00019994,2.896e-05,0.0,0 STARLINK-3895,1 52583U 22051AZ  23161.46464508  .00002896  00000-0  19994-3 0  9993,2 52583  53.2165 302.7719 0001118  86.0544 274.0576 15.08843256 60137,6917.87,95.437,540.509,538.962,0.0
52583.0,STARLINK-3895,PAYLOAD,2023-06-10 19:06:00,15.08853328,0.0001179,53.2166,301.2849,88.3977,271.715,0.00026815,3.984e-05,0.0,0 STARLINK-3895,1 52583U 22051AZ  23161.79583988  .00003984  00000-0  26815-3 0  9992,2 52583  53.2166 301.2849 0001179  88.3977 271.7150 15.08853328 60186,6917.84,95.437,540.52,538.889,0.0
52583.0,STARLINK-3895,PAYLOAD,2023-06-11 10:59:52,15.08840708,0.0001068,53.2166,298.3096,103.1768,256.9343,0.00012138,1.645e-05,0.0,0 STARLINK-3895,1 52583U 22051AZ  23162.45824493  .00001645  00000-0  12138-3 0  9990,2 52583  53.2166 298.3096 0001068 103.1768 256.9343 15.08840708 60353,6917.878,95.438,540.482,539.004,0.0
52583.0,STARLINK-3895,PAYLOAD,2023-06-11 15:46:01,15.0884472,9.72e-05,53.2171,297.4195,90.1646,269.9458,0.00016241,2.298e-05,0.0,0 STARLINK-3895,1 52583U 22051AZ  23162.65696318  .00002298  00000-0  16241-3 0  9999,2 52583  53.2171 297.4195 0000972  90.1646 269.9458 15.08844720 60317,6917.866,95.437,540.403,539.059,0.0
52583.0,STARLINK-3895,PAYLOAD,2023-06-12 15:36:48,15.08844815,0.0001062,53.2165,292.9583,94.3884,265.723,6.8431e-05,8.02e-06,0.0,0 STARLINK-3895,1 52583U 22051AZ  23163.65056028  .00000802  00000-0  68431-4 0  9996,2 52583  53.2165 292.9583 0001062  94.3884 265.7230 15.08844815 60533,6917.866,95.437,540.465,538.996,0.0
52583.0,STARLINK-3895,PAYLOAD,2023-06-13 10:41:26,15.08830458,9.57e-05,53.2161,289.392,97.9289,262.1812,-7.1647e-05,-1.427e-05,0.0,0 STARLINK-3895,1 52583U 22051AZ  23164.44544735 -.00001427  00000-0 -71647-4 0  9990,2 52583  53.2161 289.3920 0000957  97.9289 262.1812 15.08830458 60652,6917.91,95.438,540.437,539.113,0.0
52583.0,STARLINK-3895,PAYLOAD,2023-06-14 10:32:13,15.08844478,7.52e-05,53.2169,284.9315,86.1891,273.9188,2.7692e-05,1.53e-06,0.0,0 STARLINK-3895,1 52583U 22051AZ  23165.43904517  .00000153  00000-0  27692-4 0  9992,2 52583  53.2169 284.9315 0000752  86.1891 273.9188 15.08844478 60801,6917.867,95.437,540.252,539.211,0.0
52583.0,STARLINK-3895,PAYLOAD,2023-06-14 18:29:08,15.0884856,8.07e-05,53.2159,283.4444,81.223,278.8853,0.00010391,1.367e-05,0.0,0 STARLINK-3895,1 52583U 22051AZ  23165.77023960  .00001367  00000-0  10391-3 0  9998,2 52583  53.2159 283.4444 0000807  81.2230 278.8853 15.08848560 60787,6917.854,95.437,540.277,539.161,0.0
52583.0,STARLINK-3895,PAYLOAD,2023-06-15 13:33:47,15.08837903,9.47e-05,53.2163,279.8739,84.6047,275.5053,8.1998e-05,1.017e-05,0.0,0 STARLINK-3895,1 52583U 22051AZ  23166.56512789  .00001017  00000-0  81998-4 0  9992,2 52583  53.2163 279.8739 0000947  84.6047 275.5053 15.08837903 60905,6917.887,95.438,540.407,539.097,0.0
52583.0,STARLINK-3895,PAYLOAD,2023-06-15 16:44:33,15.08842344,0.0001037,53.2173,279.2792,77.7281,282.3827,0.00016055,2.268e-05,0.0,0 STARLINK-3895,1 52583U 22051AZ  23166.69760626  .00002268  00000-0  16055-3 0  9991,2 52583  53.2173 279.2792 0001037  77.7281 282.3827 15.08842344 60992,6917.873,95.437,540.456,539.021,0.0
52583.0,STARLINK-3895,PAYLOAD,2023-06-16 13:24:33,15.0885458,9.62e-05,53.2156,275.4155,73.1844,286.9253,0.00018635,2.68e-05,0.0,0 STARLINK-3895,1 52583U 22051AZ  23167.55871823  .00002680  00000-0  18635-3 0  9993,2 52583  53.2156 275.4155 0000962  73.1844 286.9253 15.08854580 61051,6917.836,95.437,540.366,539.035,0.0
52583.0,STARLINK-3895,PAYLOAD,2023-06-16 14:59:56,15.08860445,8.75e-05,53.2162,275.1174,83.7981,276.3111,0.00028744,4.292e-05,0.0,0 STARLINK-3895,1 52583U 22051AZ  23167.62495452  .00004292  00000-0  28744-3 0  9994,2 52583  53.2162 275.1174 0000875  83.7981 276.3111 15.08860445 61062,6917.818,95.436,540.288,539.078,0.0
52583.0,STARLINK-3895,PAYLOAD,2023-06-17 00:32:15,15.0884124,9.2e-05,53.2167,273.3324,95.5639,264.5459,7.0032e-05,8.27e-06,0.0,0 STARLINK-3895,1 52583U 22051AZ  23168.02240294  .00000827  00000-0  70032-4 0  9999,2 52583  53.2167 273.3324 0000920  95.5639 264.5459 15.08841240 61196,6917.877,95.437,540.378,539.105,0.0
52583.0,STARLINK-3895,PAYLOAD,2023-06-17 06:53:48,15.08821571,8.69e-05,53.2165,272.1433,101.985,258.124,-0.0002985,-5.033e-05,0.0,0 STARLINK-3895,1 52583U 22051AZ  23168.28737102 -.00005033  00000-0 -29850-3 0  9993,2 52583  53.2165 272.1433 0000869 101.9850 258.1240 15.08821571 61238,6917.937,95.439,540.403,539.201,0.0
52583.0,STARLINK-3895,PAYLOAD,2023-06-17 13:15:21,15.08832084,0.0001647,53.2172,270.9533,100.526,259.5917,-5.1877e-05,-1.113e-05,0.0,0 STARLINK-3895,1 52583U 22051AZ  23168.55233085 -.00001113  00000-0 -51877-4 0  9994,2 52583  53.2172 270.9533 0001647 100.5260 259.5917 15.08832084 61202,6917.905,95.438,540.909,538.63,0.0
52583.0,STARLINK-3895,PAYLOAD,2023-06-18 13:06:08,15.08848914,8.78e-05,53.2163,266.4946,102.708,257.401,0.00039245,5.965e-05,0.0,0 STARLINK-3895,1 52583U 22051AZ  23169.54592959  .00005965  00000-0  39245-3 0  9993,2 52583  53.2163 266.4946 0000878 102.7080 257.4010 15.08848914 61355,6917.853,95.437,540.326,539.111,0.0
